CCSDS_OMM_VERS = 2.0
CREATION_DATE  = 
ORIGINATOR     = 

OBJECT_NAME    = ATLAS CENTAUR 2
OBJECT_ID      = 1963-047A
CENTER_NAME    = EARTH
REF_FRAME      = TEME
TIME_SYSTEM    = UTC
MEAN_ELEMENT_THEORY = SGP/SGP4

EPOCH          = 2026-02-28T18:43:10.332480
MEAN_MOTION    = 14.12036781
ECCENTRICITY   = .0547902
INCLINATION    = 30.3534
RA_OF_ASC_NODE = 245.4365
ARG_OF_PERICENTER = 1.7642
MEAN_ANOMALY   = 358.4758

EPHEMERIS_TYPE = 0
CLASSIFICATION_TYPE = U
NORAD_CAT_ID   = 694
ELEMENT_SET_NO = 999
REV_AT_EPOCH   = 13036
BSTAR          = .16596E-3
MEAN_MOTION_DOT = .1449E-4
MEAN_MOTION_DDOT = 0

CCSDS_OMM_VERS = 2.0
CREATION_DATE  = 
ORIGINATOR     = 

OBJECT_NAME    = THOR AGENA D R/B
OBJECT_ID      = 1964-002A
CENTER_NAME    = EARTH
REF_FRAME      = TEME
TIME_SYSTEM    = UTC
MEAN_ELEMENT_THEORY = SGP/SGP4

EPOCH          = 2026-02-28T14:11:15.467136
MEAN_MOTION    = 14.34013772
ECCENTRICITY   = .0031916
INCLINATION    = 99.1228
RA_OF_ASC_NODE = 72.4328
ARG_OF_PERICENTER = 285.4528
MEAN_ANOMALY   = 74.3130

EPHEMERIS_TYPE = 0
CLASSIFICATION_TYPE = U
NORAD_CAT_ID   = 733
ELEMENT_SET_NO = 999
REV_AT_EPOCH   = 23699
BSTAR          = .10646E-3
MEAN_MOTION_DOT = .25E-5
MEAN_MOTION_DDOT = 0

CCSDS_OMM_VERS = 2.0
CREATION_DATE  = 
ORIGINATOR     = 

OBJECT_NAME    = SL-3 R/B
OBJECT_ID      = 1964-053B
CENTER_NAME    = EARTH
REF_FRAME      = TEME
TIME_SYSTEM    = UTC
MEAN_ELEMENT_THEORY = SGP/SGP4

EPOCH          = 2026-02-28T19:05:25.817280
MEAN_MOTION    = 14.61357931
ECCENTRICITY   = .0079352
INCLINATION    = 65.0786
RA_OF_ASC_NODE = 357.3115
ARG_OF_PERICENTER = 295.0485
MEAN_ANOMALY   = 64.2391

EPHEMERIS_TYPE = 0
CLASSIFICATION_TYPE = U
NORAD_CAT_ID   = 877
ELEMENT_SET_NO = 999
REV_AT_EPOCH   = 26549
BSTAR          = .98347E-4
MEAN_MOTION_DOT = .383E-5
MEAN_MOTION_DDOT = 0

CCSDS_OMM_VERS = 2.0
CREATION_DATE  = 
ORIGINATOR     = 

OBJECT_NAME    = SL-8 R/B
OBJECT_ID      = 1967-045B
CENTER_NAME    = EARTH
REF_FRAME      = TEME
TIME_SYSTEM    = UTC
MEAN_ELEMENT_THEORY = SGP/SGP4

EPOCH          = 2026-02-28T20:31:58.923840
MEAN_MOTION    = 14.45612155
ECCENTRICITY   = .0063835
INCLINATION    = 74.0133
RA_OF_ASC_NODE = 4.5854
ARG_OF_PERICENTER = 12.9759
MEAN_ANOMALY   = 347.3023

EPHEMERIS_TYPE = 0
CLASSIFICATION_TYPE = U
NORAD_CAT_ID   = 2802
ELEMENT_SET_NO = 999
REV_AT_EPOCH   = 8774
BSTAR          = .14311E-3
MEAN_MOTION_DOT = .49E-5
MEAN_MOTION_DDOT = 0

CCSDS_OMM_VERS = 2.0
CREATION_DATE  = 
ORIGINATOR     = 

OBJECT_NAME    = SL-8 R/B
OBJECT_ID      = 1968-040B
CENTER_NAME    = EARTH
REF_FRAME      = TEME
TIME_SYSTEM    = UTC
MEAN_ELEMENT_THEORY = SGP/SGP4

EPOCH          = 2026-02-28T20:35:50.022240
MEAN_MOTION    = 15.03184677
ECCENTRICITY   = .0024292
INCLINATION    = 74.0335
RA_OF_ASC_NODE = 331.7376
ARG_OF_PERICENTER = 158.4787
MEAN_ANOMALY   = 201.7429

EPHEMERIS_TYPE = 0
CLASSIFICATION_TYPE = U
NORAD_CAT_ID   = 3230
ELEMENT_SET_NO = 999
REV_AT_EPOCH   = 8868
BSTAR          = .22312E-3
MEAN_MOTION_DOT = .2994E-4
MEAN_MOTION_DDOT = 0

CCSDS_OMM_VERS = 2.0
CREATION_DATE  = 
ORIGINATOR     = 

OBJECT_NAME    = OAO 2
OBJECT_ID      = 1968-110A
CENTER_NAME    = EARTH
REF_FRAME      = TEME
TIME_SYSTEM    = UTC
MEAN_ELEMENT_THEORY = SGP/SGP4

EPOCH          = 2026-02-28T17:53:48.384960
MEAN_MOTION    = 14.47301331
ECCENTRICITY   = .0005015
INCLINATION    = 34.9940
RA_OF_ASC_NODE = 315.1605
ARG_OF_PERICENTER = 131.5796
MEAN_ANOMALY   = 228.5326

EPHEMERIS_TYPE = 0
CLASSIFICATION_TYPE = U
NORAD_CAT_ID   = 3597
ELEMENT_SET_NO = 999
REV_AT_EPOCH   = 1780
BSTAR          = .85555E-4
MEAN_MOTION_DOT = .298E-5
MEAN_MOTION_DDOT = 0

CCSDS_OMM_VERS = 2.0
CREATION_DATE  = 
ORIGINATOR     = 

OBJECT_NAME    = ISIS 1
OBJECT_ID      = 1969-009A
CENTER_NAME    = EARTH
REF_FRAME      = TEME
TIME_SYSTEM    = UTC
MEAN_ELEMENT_THEORY = SGP/SGP4

EPOCH          = 2026-02-28T18:44:08.813184
MEAN_MOTION    = 11.30410803
ECCENTRICITY   = .1707838
INCLINATION    = 88.4551
RA_OF_ASC_NODE = 156.2797
ARG_OF_PERICENTER = 107.1353
MEAN_ANOMALY   = 272.3204

EPHEMERIS_TYPE = 0
CLASSIFICATION_TYPE = U
NORAD_CAT_ID   = 3669
ELEMENT_SET_NO = 999
REV_AT_EPOCH   = 34752
BSTAR          = .98004E-4
MEAN_MOTION_DOT = .161E-5
MEAN_MOTION_DDOT = 0

CCSDS_OMM_VERS = 2.0
CREATION_DATE  = 
ORIGINATOR     = 

OBJECT_NAME    = SERT 2
OBJECT_ID      = 1970-009A
CENTER_NAME    = EARTH
REF_FRAME      = TEME
TIME_SYSTEM    = UTC
MEAN_ELEMENT_THEORY = SGP/SGP4

EPOCH          = 2026-02-28T20:42:52.757568
MEAN_MOTION    = 13.58728961
ECCENTRICITY   = .0004705
INCLINATION    = 99.2747
RA_OF_ASC_NODE = 3.4402
ARG_OF_PERICENTER = 177.5493
MEAN_ANOMALY   = 248.4316

EPHEMERIS_TYPE = 0
CLASSIFICATION_TYPE = U
NORAD_CAT_ID   = 4327
ELEMENT_SET_NO = 999
REV_AT_EPOCH   = 77869
BSTAR          = .53673E-4
MEAN_MOTION_DOT = -.2E-7
MEAN_MOTION_DDOT = 0

CCSDS_OMM_VERS = 2.0
CREATION_DATE  = 
ORIGINATOR     = 

OBJECT_NAME    = SL-3 R/B
OBJECT_ID      = 1971-028B
CENTER_NAME    = EARTH
REF_FRAME      = TEME
TIME_SYSTEM    = UTC
MEAN_ELEMENT_THEORY = SGP/SGP4

EPOCH          = 2026-02-28T19:24:06.198048
MEAN_MOTION    = 15.60268150
ECCENTRICITY   = .0014604
INCLINATION    = 81.2332
RA_OF_ASC_NODE = 62.9930
ARG_OF_PERICENTER = 323.2127
MEAN_ANOMALY   = 36.8122

EPHEMERIS_TYPE = 0
CLASSIFICATION_TYPE = U
NORAD_CAT_ID   = 5118
ELEMENT_SET_NO = 999
REV_AT_EPOCH   = 98728
BSTAR          = .48933E-3
MEAN_MOTION_DOT = .40285E-3
MEAN_MOTION_DDOT = 0

CCSDS_OMM_VERS = 2.0
CREATION_DATE  = 
ORIGINATOR     = 

OBJECT_NAME    = ASTEX 1
OBJECT_ID      = 1971-089A
CENTER_NAME    = EARTH
REF_FRAME      = TEME
TIME_SYSTEM    = UTC
MEAN_ELEMENT_THEORY = SGP/SGP4

EPOCH          = 2026-02-28T17:13:33.175776
MEAN_MOTION    = 14.50758165
ECCENTRICITY   = .0017783
INCLINATION    = 92.7133
RA_OF_ASC_NODE = 148.8581
ARG_OF_PERICENTER = 112.3191
MEAN_ANOMALY   = 247.9902

EPHEMERIS_TYPE = 0
CLASSIFICATION_TYPE = U
NORAD_CAT_ID   = 5560
ELEMENT_SET_NO = 999
REV_AT_EPOCH   = 86100
BSTAR          = .14474E-3
MEAN_MOTION_DOT = .569E-5
MEAN_MOTION_DDOT = 0

CCSDS_OMM_VERS = 2.0
CREATION_DATE  = 
ORIGINATOR     = 

OBJECT_NAME    = SL-8 R/B
OBJECT_ID      = 1971-119B
CENTER_NAME    = EARTH
REF_FRAME      = TEME
TIME_SYSTEM    = UTC
MEAN_ELEMENT_THEORY = SGP/SGP4

EPOCH          = 2026-02-28T19:40:57.832320
MEAN_MOTION    = 14.37567627
ECCENTRICITY   = .0550517
INCLINATION    = 73.8867
RA_OF_ASC_NODE = 192.2930
ARG_OF_PERICENTER = 160.7715
MEAN_ANOMALY   = 201.5154

EPHEMERIS_TYPE = 0
CLASSIFICATION_TYPE = U
NORAD_CAT_ID   = 5730
ELEMENT_SET_NO = 999
REV_AT_EPOCH   = 65421
BSTAR          = .84208E-3
MEAN_MOTION_DOT = .16227E-3
MEAN_MOTION_DDOT = 0

CCSDS_OMM_VERS = 2.0
CREATION_DATE  = 
ORIGINATOR     = 

OBJECT_NAME    = OAO 3 (COPERNICUS)
OBJECT_ID      = 1972-065A
CENTER_NAME    = EARTH
REF_FRAME      = TEME
TIME_SYSTEM    = UTC
MEAN_ELEMENT_THEORY = SGP/SGP4

EPOCH          = 2026-02-28T12:34:16.491072
MEAN_MOTION    = 14.59988773
ECCENTRICITY   = .0005909
INCLINATION    = 35.0070
RA_OF_ASC_NODE = 349.5364
ARG_OF_PERICENTER = 85.9707
MEAN_ANOMALY   = 80.3895

EPHEMERIS_TYPE = 0
CLASSIFICATION_TYPE = U
NORAD_CAT_ID   = 6153
ELEMENT_SET_NO = 999
REV_AT_EPOCH   = 84485
BSTAR          = .91688E-4
MEAN_MOTION_DOT = .425E-5
MEAN_MOTION_DDOT = 0

