ATLAS CENTAUR 2         
1 00694U 63047A   26059.77998070  .00001449  00000+0  16596-3 0  9995
2 00694  30.3534 245.4365 0547902   1.7642 358.4758 14.12036781130361
THOR AGENA D R/B        
1 00733U 64002A   26059.59115124  .00000250  00000+0  10646-3 0  9991
2 00733  99.1228  72.4328 0031916 285.4528  74.3130 14.34013772236995
SL-3 R/B                
1 00877U 64053B   26059.79543770  .00000383  00000+0  98347-4 0  9992
2 00877  65.0786 357.3115 0079352 295.0485  64.2391 14.61357931265491
SL-8 R/B                
1 02802U 67045B   26059.85554310  .00000490  00000+0  14311-3 0  9992
2 02802  74.0133   4.5854 0063835  12.9759 347.3023 14.45612155 87748
SL-8 R/B                
1 03230U 68040B   26059.85821785  .00002994  00000+0  22312-3 0  9998
2 03230  74.0335 331.7376 0024292 158.4787 201.7429 15.03184677 88688
OAO 2                   
1 03597U 68110A   26059.74569890  .00000298  00000+0  85555-4 0  9990
2 03597  34.9940 315.1605 0005015 131.5796 228.5326 14.47301331 17800
ISIS 1                  
1 03669U 69009A   26059.78065756  .00000161  00000+0  98004-4 0  9996
2 03669  88.4551 156.2797 1707838 107.1353 272.3204 11.30410803347520
SERT 2                  
1 04327U 70009A   26059.86311062 -.00000002  00000+0  53673-4 0  9991
2 04327  99.2747   3.4402 0004705 177.5493 248.4316 13.58728961778696
SL-3 R/B                
1 05118U 71028B   26059.80840507  .00040285  00000+0  48933-3 0  9995
2 05118  81.2332  62.9930 0014604 323.2127  36.8122 15.60268150987280
ASTEX 1                 
1 05560U 71089A   26059.71774509  .00000569  00000+0  14474-3 0  9995
2 05560  92.7133 148.8581 0017783 112.3191 247.9902 14.50758165861002
SL-8 R/B                
1 05730U 71119B   26059.82011380  .00016227  00000+0  84208-3 0  9991
2 05730  73.8867 192.2930 0550517 160.7715 201.5154 14.37567627654216
OAO 3 (COPERNICUS)      
1 06153U 72065A   26059.52380198  .00000425  00000+0  91688-4 0  9999
2 06153  35.0070 349.5364 0005909  85.9707  80.3895 14.59988773844858
